{
  "type": "FeatureCollection",
  "features": [
    {
      "type": "Feature",
      "properties": {
        "norad_id": 41599,
        "name": "CARTOSAT-2C",
        "group": "resource",
        "lat": -80.9385723721435,
        "lon": 178.51561413466047,
        "alt_km": 520.1438787418783,
        "timestamp": "2025-12-22T18:58:53.078061+00:00",
        "meta_object_name": "CARTOSAT-2C",
        "meta_object_id": "2016-040A",
        "meta_epoch": "2025-12-21T18:06:24.689088",
        "meta_mean_motion": 15.19188008,
        "meta_eccentricity": 0.00110207,
        "meta_inclination": 97.4756,
        "meta_ra_of_asc_node": 52.9115,
        "meta_arg_of_pericenter": 34.9019,
        "meta_mean_anomaly": 325.2936,
        "meta_ephemeris_type": 0,
        "meta_classification_type": "U",
        "meta_norad_cat_id": 41599,
        "meta_element_set_no": 999,
        "meta_rev_at_epoch": 52677,
        "meta_bstar": 0.00012803175,
        "meta_mean_motion_dot": 2.628e-05,
        "meta_mean_motion_ddot": 0,
        "tle_line1": "1 41599U 16040A   25355.75445242  .00002628  00000+0  12803-3 0  9996",
        "tle_line2": "2 41599  97.4756  52.9115 0011020  34.9019 325.2936 15.19188008526779"
      },
      "geometry": {
        "type": "Point",
        "coordinates": [
          178.51561413466047,
          -80.9385723721435
        ]
      }
    },
    {
      "type": "Feature",
      "properties": {
        "norad_id": 41601,
        "name": "SKYSAT-C1",
        "group": "resource",
        "lat": 82.16784543867722,
        "lon": -29.731619486719282,
        "alt_km": 460.41490565975437,
        "timestamp": "2025-12-22T18:58:53.078071+00:00",
        "meta_object_name": "SKYSAT-C1",
        "meta_object_id": "2016-040C",
        "meta_epoch": "2025-12-22T01:22:14.024928",
        "meta_mean_motion": 15.3274689,
        "meta_eccentricity": 0.00012886,
        "meta_inclination": 96.9807,
        "meta_ra_of_asc_node": 32.5455,
        "meta_arg_of_pericenter": 340.6594,
        "meta_mean_anomaly": 19.46,
        "meta_ephemeris_type": 0,
        "meta_classification_type": "U",
        "meta_norad_cat_id": 41601,
        "meta_element_set_no": 999,
        "meta_rev_at_epoch": 53070,
        "meta_bstar": 0.00031057891,
        "meta_mean_motion_dot": 9.752e-05,
        "meta_mean_motion_ddot": 0,
        "tle_line1": "1 41601U 16040C   25356.05710677  .00009752  00000+0  31058-3 0  9999",
        "tle_line2": "2 41601  96.9807  32.5455 0001288 340.6594  19.4600 15.32746890530707"
      },
      "geometry": {
        "type": "Point",
        "coordinates": [
          -29.731619486719282,
          82.16784543867722
        ]
      }
    },
    {
      "type": "Feature",
      "properties": {
        "norad_id": 41603,
        "name": "LAPAN-A3",
        "group": "resource",
        "lat": -10.97641129519097,
        "lon": 172.58789390746196,
        "alt_km": 476.6255514302229,
        "timestamp": "2025-12-22T18:58:53.078082+00:00",
        "meta_object_name": "LAPAN-A3",
        "meta_object_id": "2016-040E",
        "meta_epoch": "2025-12-22T05:36:20.341728",
        "meta_mean_motion": 15.31624377,
        "meta_eccentricity": 0.00088051,
        "meta_inclination": 97.1427,
        "meta_ra_of_asc_node": 353.4444,
        "meta_arg_of_pericenter": 294.9715,
        "meta_mean_anomaly": 65.0612,
        "meta_ephemeris_type": 0,
        "meta_classification_type": "U",
        "meta_norad_cat_id": 41603,
        "meta_element_set_no": 999,
        "meta_rev_at_epoch": 52771,
        "meta_bstar": 0.00014270278,
        "meta_mean_motion_dot": 4.287e-05,
        "meta_mean_motion_ddot": 0,
        "tle_line1": "1 41603U 16040E   25356.23356877  .00004287  00000+0  14270-3 0  9994",
        "tle_line2": "2 41603  97.1427 353.4444 0008805 294.9715  65.0612 15.31624377527712"
      },
      "geometry": {
        "type": "Point",
        "coordinates": [
          172.58789390746196,
          -10.97641129519097
        ]
      }
    },
    {
      "type": "Feature",
      "properties": {
        "norad_id": 41604,
        "name": "BIROS",
        "group": "resource",
        "lat": 23.176562958827773,
        "lon": 25.609893630599036,
        "alt_km": 292.79733185949226,
        "timestamp": "2025-12-22T18:58:53.078093+00:00",
        "meta_object_name": "BIROS",
        "meta_object_id": "2016-040F",
        "meta_epoch": "2025-12-21T20:16:27.693408",
        "meta_mean_motion": 15.93143853,
        "meta_eccentricity": 0.00037129,
        "meta_inclination": 97.0682,
        "meta_ra_of_asc_node": 27.6655,
        "meta_arg_of_pericenter": 133.3571,
        "meta_mean_anomaly": 226.8015,
        "meta_ephemeris_type": 0,
        "meta_classification_type": "U",
        "meta_norad_cat_id": 41604,
        "meta_element_set_no": 999,
        "meta_rev_at_epoch": 53017,
        "meta_bstar": 0.00065293224,
        "meta_mean_motion_dot": 0.00227507,
        "meta_mean_motion_ddot": 2.144608e-05,
        "tle_line1": "1 41604U 16040F   25355.84476497  .00227507  21446-4  65293-3 0  9997",
        "tle_line2": "2 41604  97.0682  27.6655 0003712 133.3571 226.8015 15.93143853530178"
      },
      "geometry": {
        "type": "Point",
        "coordinates": [
          25.609893630599036,
          23.176562958827773
        ]
      }
    },
    {
      "type": "Feature",
      "properties": {
        "norad_id": 41727,
        "name": "GAOFEN-3",
        "group": "resource",
        "lat": -19.908729605835454,
        "lon": 5.292519027996327,
        "alt_km": 756.1060259605292,
        "timestamp": "2025-12-22T18:58:53.078103+00:00",
        "meta_object_name": "GAOFEN-3",
        "meta_object_id": "2016-049A",
        "meta_epoch": "2025-12-22T07:25:08.545152",
        "meta_mean_motion": 14.42216214,
        "meta_eccentricity": 0.00011974,
        "meta_inclination": 98.403,
        "meta_ra_of_asc_node": 1.7494,
        "meta_arg_of_pericenter": 56.2442,
        "meta_mean_anomaly": 303.8861,
        "meta_ephemeris_type": 0,
        "meta_classification_type": "U",
        "meta_norad_cat_id": 41727,
        "meta_element_set_no": 999,
        "meta_rev_at_epoch": 49315,
        "meta_bstar": 6.8673312e-05,
        "meta_mean_motion_dot": 1.83e-06,
        "meta_mean_motion_ddot": 0,
        "tle_line1": "1 41727U 16049A   25356.30912668  .00000183  00000+0  68673-4 0  9992",
        "tle_line2": "2 41727  98.4030   1.7494 0001197  56.2442 303.8861 14.42216214493151"
      },
      "geometry": {
        "type": "Point",
        "coordinates": [
          5.292519027996327,
          -19.908729605835454
        ]
      }
    },
    {
      "type": "Feature",
      "properties": {
        "norad_id": 41771,
        "name": "SKYSAT-C4",
        "group": "resource",
        "lat": 12.225160212521972,
        "lon": 19.979086482489727,
        "alt_km": 440.68545626186096,
        "timestamp": "2025-12-22T18:58:53.078114+00:00",
        "meta_object_name": "SKYSAT-C4",
        "meta_object_id": "2016-058B",
        "meta_epoch": "2025-12-22T01:48:06.895584",
        "meta_mean_motion": 15.42499501,
        "meta_eccentricity": 0.00023097,
        "meta_inclination": 96.936,
        "meta_ra_of_asc_node": 20.8093,
        "meta_arg_of_pericenter": 127.7671,
        "meta_mean_anomaly": 232.3787,
        "meta_ephemeris_type": 0,
        "meta_classification_type": "U",
        "meta_norad_cat_id": 41771,
        "meta_element_set_no": 999,
        "meta_rev_at_epoch": 51811,
        "meta_bstar": 0.00035886793,
        "meta_mean_motion_dot": 0.00015486,
        "meta_mean_motion_ddot": 0,
        "tle_line1": "1 41771U 16058B   25356.07507981  .00015486  00000+0  35887-3 0  9995",
        "tle_line2": "2 41771  96.9360  20.8093 0002309 127.7671 232.3787 15.42499501518110"
      },
      "geometry": {
        "type": "Point",
        "coordinates": [
          19.979086482489727,
          12.225160212521972
        ]
      }
    },
    {
      "type": "Feature",
      "properties": {
        "norad_id": 41772,
        "name": "SKYSAT-C5",
        "group": "resource",
        "lat": -12.823032202362,
        "lon": 41.74223947724656,
        "alt_km": 468.95940890082056,
        "timestamp": "2025-12-22T18:58:53.078124+00:00",
        "meta_object_name": "SKYSAT-C5",
        "meta_object_id": "2016-058C",
        "meta_epoch": "2025-12-22T01:49:00.968160",
        "meta_mean_motion": 15.34032906,
        "meta_eccentricity": 0.00038149,
        "meta_inclination": 97.0741,
        "meta_ra_of_asc_node": 39.4372,
        "meta_arg_of_pericenter": 246.7758,
        "meta_mean_anomaly": 113.3085,
        "meta_ephemeris_type": 0,
        "meta_classification_type": "U",
        "meta_norad_cat_id": 41772,
        "meta_element_set_no": 999,
        "meta_rev_at_epoch": 51659,
        "meta_bstar": 0.00030067318,
        "meta_mean_motion_dot": 9.83e-05,
        "meta_mean_motion_ddot": 0,
        "tle_line1": "1 41772U 16058C   25356.07570565  .00009830  00000+0  30067-3 0  9995",
        "tle_line2": "2 41772  97.0741  39.4372 0003814 246.7758 113.3085 15.34032906516594"
      },
      "geometry": {
        "type": "Point",
        "coordinates": [
          41.74223947724656,
          -12.823032202362
        ]
      }
    }
  ]
}